{
  "type": "FeatureCollection",
  "features": [
    {
      "type": "Feature",
      "properties": {
        "norad_id": 66611,
        "name": "STARLINK-35583",
        "group": "last-30-days",
        "lat": -22.376078836515944,
        "lon": 128.0951100426269,
        "alt_km": 419.30821565049064,
        "timestamp": "2025-12-19T06:59:42.650005+00:00",
        "meta_object_name": "STARLINK-35583",
        "meta_object_id": "2025-270Z",
        "meta_epoch": "2025-12-18T21:51:42.184224",
        "meta_mean_motion": 15.50080389,
        "meta_eccentricity": 0.00037731,
        "meta_inclination": 42.9989,
        "meta_ra_of_asc_node": 156.5389,
        "meta_arg_of_pericenter": 233.564,
        "meta_mean_anomaly": 126.4872,
        "meta_ephemeris_type": 0,
        "meta_classification_type": "U",
        "meta_norad_cat_id": 66611,
        "meta_element_set_no": 999,
        "meta_rev_at_epoch": 541,
        "meta_bstar": -0.0050396687,
        "meta_mean_motion_dot": -0.00280742,
        "meta_mean_motion_ddot": 0,
        "tle_line1": "1 66611U 25270Z   25352.91090491 -.00280742  00000+0 -50397-2 0  9996",
        "tle_line2": "2 66611  42.9989 156.5389 0003773 233.5640 126.4872 15.50080389  5412"
      },
      "geometry": {
        "type": "Point",
        "coordinates": [
          128.0951100426269,
          -22.376078836515944
        ]
      }
    },
    {
      "type": "Feature",
      "properties": {
        "norad_id": 66612,
        "name": "STARLINK-36039",
        "group": "last-30-days",
        "lat": 42.59041341239158,
        "lon": -105.70382993932246,
        "alt_km": 438.34853015436147,
        "timestamp": "2025-12-19T06:59:42.650015+00:00",
        "meta_object_name": "STARLINK-36039",
        "meta_object_id": "2025-270AA",
        "meta_epoch": "2025-12-18T19:41:08.412000",
        "meta_mean_motion": 15.40721846,
        "meta_eccentricity": 0.00017768,
        "meta_inclination": 42.999,
        "meta_ra_of_asc_node": 157.586,
        "meta_arg_of_pericenter": 278.8459,
        "meta_mean_anomaly": 81.2197,
        "meta_ephemeris_type": 0,
        "meta_classification_type": "U",
        "meta_norad_cat_id": 66612,
        "meta_element_set_no": 999,
        "meta_rev_at_epoch": 528,
        "meta_bstar": 0.00062139604,
        "meta_mean_motion_dot": 0.0002576,
        "meta_mean_motion_ddot": 0,
        "tle_line1": "1 66612U 25270AA  25352.82023625  .00025760  00000+0  62140-3 0  9997",
        "tle_line2": "2 66612  42.9990 157.5860 0001776 278.8459  81.2197 15.40721846  5283"
      },
      "geometry": {
        "type": "Point",
        "coordinates": [
          -105.70382993932246,
          42.59041341239158
        ]
      }
    },
    {
      "type": "Feature",
      "properties": {
        "norad_id": 66613,
        "name": "STARLINK-36037",
        "group": "last-30-days",
        "lat": 35.36118081402423,
        "lon": -74.79455808473907,
        "alt_km": 438.9611930598767,
        "timestamp": "2025-12-19T06:59:42.650025+00:00",
        "meta_object_name": "STARLINK-36037",
        "meta_object_id": "2025-270AB",
        "meta_epoch": "2025-12-18T21:08:01.810464",
        "meta_mean_motion": 15.40745253,
        "meta_eccentricity": 0.00014795,
        "meta_inclination": 42.9986,
        "meta_ra_of_asc_node": 157.1775,
        "meta_arg_of_pericenter": 259.665,
        "meta_mean_anomaly": 100.4039,
        "meta_ephemeris_type": 0,
        "meta_classification_type": "U",
        "meta_norad_cat_id": 66613,
        "meta_element_set_no": 999,
        "meta_rev_at_epoch": 529,
        "meta_bstar": 0.0009126067,
        "meta_mean_motion_dot": 0.00038066,
        "meta_mean_motion_ddot": 0,
        "tle_line1": "1 66613U 25270AB  25352.88057651  .00038066  00000+0  91261-3 0  9999",
        "tle_line2": "2 66613  42.9986 157.1775 0001479 259.6650 100.4039 15.40745253  5298"
      },
      "geometry": {
        "type": "Point",
        "coordinates": [
          -74.79455808473907,
          35.36118081402423
        ]
      }
    },
    {
      "type": "Feature",
      "properties": {
        "norad_id": 66614,
        "name": "STARLINK-36040",
        "group": "last-30-days",
        "lat": -33.32461440958209,
        "lon": 19.415922122157554,
        "alt_km": 446.1712173343849,
        "timestamp": "2025-12-19T06:59:42.650038+00:00",
        "meta_object_name": "STARLINK-36040",
        "meta_object_id": "2025-270AC",
        "meta_epoch": "2025-12-19T00:00:02.000160",
        "meta_mean_motion": 15.40674656,
        "meta_eccentricity": 0.00019593,
        "meta_inclination": 42.9996,
        "meta_ra_of_asc_node": 156.219,
        "meta_arg_of_pericenter": 287.2284,
        "meta_mean_anomaly": 128.0247,
        "meta_ephemeris_type": 0,
        "meta_classification_type": "U",
        "meta_norad_cat_id": 66614,
        "meta_element_set_no": 999,
        "meta_rev_at_epoch": 524,
        "meta_bstar": 0.0013950553,
        "meta_mean_motion_dot": 0.0005837,
        "meta_mean_motion_ddot": 0,
        "tle_line1": "1 66614U 25270AC  25353.00002315  .00058370  00000+0  13951-2 0  9991",
        "tle_line2": "2 66614  42.9996 156.2190 0001959 287.2284 128.0247 15.40674656  5244"
      },
      "geometry": {
        "type": "Point",
        "coordinates": [
          19.415922122157554,
          -33.32461440958209
        ]
      }
    },
    {
      "type": "Feature",
      "properties": {
        "norad_id": 66615,
        "name": "STARLINK-35988",
        "group": "last-30-days",
        "lat": 14.088481939508714,
        "lon": -40.90314000113495,
        "alt_km": 442.22825186615955,
        "timestamp": "2025-12-19T06:59:42.650050+00:00",
        "meta_object_name": "STARLINK-35988",
        "meta_object_id": "2025-270AD",
        "meta_epoch": "2025-12-19T00:00:02.000160",
        "meta_mean_motion": 15.4065151,
        "meta_eccentricity": 0.00015838,
        "meta_inclination": 42.9988,
        "meta_ra_of_asc_node": 156.4013,
        "meta_arg_of_pericenter": 268.5463,
        "meta_mean_anomaly": 72.0896,
        "meta_ephemeris_type": 0,
        "meta_classification_type": "U",
        "meta_norad_cat_id": 66615,
        "meta_element_set_no": 999,
        "meta_rev_at_epoch": 524,
        "meta_bstar": 0.0015815317,
        "meta_mean_motion_dot": 0.0006623,
        "meta_mean_motion_ddot": 0,
        "tle_line1": "1 66615U 25270AD  25353.00002315  .00066230  00000+0  15815-2 0  9997",
        "tle_line2": "2 66615  42.9988 156.4013 0001583 268.5463  72.0896 15.40651510  5248"
      },
      "geometry": {
        "type": "Point",
        "coordinates": [
          -40.90314000113495,
          14.088481939508714
        ]
      }
    },
    {
      "type": "Feature",
      "properties": {
        "norad_id": 66616,
        "name": "STARLINK-35391",
        "group": "last-30-days",
        "lat": -41.92797902080473,
        "lon": 49.01914596805439,
        "alt_km": 446.2827607076488,
        "timestamp": "2025-12-19T06:59:42.650061+00:00",
        "meta_object_name": "STARLINK-35391",
        "meta_object_id": "2025-270AE",
        "meta_epoch": "2025-12-19T00:00:02.000160",
        "meta_mean_motion": 15.40674724,
        "meta_eccentricity": 0.00017165,
        "meta_inclination": 42.9998,
        "meta_ra_of_asc_node": 156.1589,
        "meta_arg_of_pericenter": 279.6476,
        "meta_mean_anomaly": 160.4996,
        "meta_ephemeris_type": 0,
        "meta_classification_type": "U",
        "meta_norad_cat_id": 66616,
        "meta_element_set_no": 999,
        "meta_rev_at_epoch": 551,
        "meta_bstar": 0.0012835549,
        "meta_mean_motion_dot": 0.00053647,
        "meta_mean_motion_ddot": 0,
        "tle_line1": "1 66616U 25270AE  25353.00002315  .00053647  00000+0  12836-2 0  9996",
        "tle_line2": "2 66616  42.9998 156.1589 0001716 279.6476 160.4996 15.40674724  5515"
      },
      "geometry": {
        "type": "Point",
        "coordinates": [
          49.01914596805439,
          -41.92797902080473
        ]
      }
    },
    {
      "type": "Feature",
      "properties": {
        "norad_id": 66617,
        "name": "STARLINK-35940",
        "group": "last-30-days",
        "lat": 31.871769870984963,
        "lon": -51.57375444920603,
        "alt_km": 442.4935737653359,
        "timestamp": "2025-12-19T06:59:42.650071+00:00",
        "meta_object_name": "STARLINK-35940",
        "meta_object_id": "2025-271A",
        "meta_epoch": "2025-12-19T00:00:02.000160",
        "meta_mean_motion": 15.39596888,
        "meta_eccentricity": 0.00013918,
        "meta_inclination": 53.1586,
        "meta_ra_of_asc_node": 157.5858,
        "meta_arg_of_pericenter": 105.8265,
        "meta_mean_anomaly": 216.5412,
        "meta_ephemeris_type": 0,
        "meta_classification_type": "U",
        "meta_norad_cat_id": 66617,
        "meta_element_set_no": 999,
        "meta_rev_at_epoch": 524,
        "meta_bstar": 0.00083644886,
        "meta_mean_motion_dot": 0.00033178,
        "meta_mean_motion_ddot": 0,
        "tle_line1": "1 66617U 25271A   25353.00002315  .00033178  00000+0  83645-3 0  9992",
        "tle_line2": "2 66617  53.1586 157.5858 0001391 105.8265 216.5412 15.39596888  5240"
      },
      "geometry": {
        "type": "Point",
        "coordinates": [
          -51.57375444920603,
          31.871769870984963
        ]
      }
    }
  ]
}